{
  "norad_id": 56029,
  "name": "STARLINK-5774",
  "history": [
    {
      "epoch": "2026-03-28T21:03:11.295648",
      "apogee_km": 486.3621452520001,
      "perigee_km": 484.7741584280702,
      "latitude_deg": 42.58407057912678,
      "longitude_deg": -132.8874492798932,
      "semi_major_axis_km": 6863.705151840035,
      "eccentricity": 0.00011568,
      "inclination_deg": 43.0002,
      "raan_deg": 296.5423,
      "arg_perigee_deg": 256.3968,
      "mean_anomaly_deg": 103.6754,
      "mean_motion_rev_day": 15.26739119
    }
  ]
}